KUIPER-00027            
1 63740U 25088S   26193.25297329  .00005547  00000+0  75629-3 0  9995
2 63740  51.9013 264.7789 0001231 119.3921 240.7165 14.79915816 66061
KUIPER-00028            
1 63741U 25088T   26193.49202644 -.00001171  00000+0 -12462-3 0  9995
2 63741  51.8999 261.1744 0000447 100.8667 259.2345 14.79929942 66549
KUIPER-00029            
1 63742U 25088U   26190.22661331  .00001118  00000+0  17574-3 0  9994
2 63742  51.9021 274.2983 0000184 186.9249 173.1711 14.79914546 65607
KUIPER-00030            
1 63743U 25088V   26193.43938914 -.00000378  00000+0 -20564-4 0  9998
2 63743  51.9016 278.9176 0000479  81.5570 278.5447 14.79928315 66102
KUIPER-00031            
1 63744U 25088W   26193.40427637  .00001429  00000+0  23357-3 0  9999
2 63744  51.9003 263.9158 0001861 196.6331 163.4569 14.76549599 66020
KUIPER-00032            
1 63745U 25088X   26192.94277966  .00010152  00000+0  25273-3 0  9998
2 63745  51.8664 141.7015 0003039 189.4320 170.6611 15.40865608 68681
KUIPER-00033            
1 63746U 25088Y   26193.52450391  .00001695  00000+0  25117-3 0  9998
2 63746  51.9017 293.5636 0000369 105.0146 255.0857 14.79940942 66104
KUIPER-00034            
1 63747U 25088Z   26193.42989044  .00000823  00000+0  13698-3 0  9993
2 63747  51.9008 256.5140 0000642  65.9522 294.1507 14.79930845 66297
KUIPER-00035            
1 63748U 25088AA  26193.53799147 -.00000314  00000+0 -12158-4 0  9997
2 63748  51.9010 281.0121 0000370  92.5504 267.5500 14.79929230 66010
KUIPER-00037            
1 63749U 25088AB  26193.53091313  .00000555  00000+0  10179-3 0  9993
2 63749  51.9010 279.8993 0000362 107.1980 252.9022 14.79936152 66811
KUIPER-00038            
1 63750U 25088AC  26193.45288610  .00000438  00000+0  86383-4 0  9995
2 63750  51.9017 266.4106 0000420  80.7788 279.3222 14.79933696 65998
KUIPER-00039            
1 64500U 25134A   26192.81767627  .00001946  00000+0  28413-3 0  9994
2 64500  51.9013  44.2159 0000547  94.9680 265.1345 14.79938859 58454
KUIPER-00040            
1 64501U 25134B   26193.04325358  .00001888  00000+0  27659-3 0  9998
2 64501  51.8993  53.2975 0000814 110.2791 249.8259 14.79939417 58341
KUIPER-00041            
1 64502U 25134C   26193.00677625  .00000490  00000+0  93255-4 0  9996
2 64502  51.9001  55.8435 0000652 110.3363 249.7670 14.79931190 58300
KUIPER-00042            
1 64503U 25134D   26192.97839486  .00001911  00000+0  27951-3 0  9995
2 64503  51.8990  50.9490 0000676  97.9070 262.1970 14.79941095 58379
KUIPER-00043            
1 64504U 25134E   26192.98649247  .00000742  00000+0  12638-3 0  9998
2 64504  51.9032  43.4101 0000788 110.0785 250.0262 14.79932343 58486
