{"fetched_at":"2026-07-12T17:32:22.539Z","source":"https://celestrak.org/NORAD/elements/gp.php?GROUP=kuiper&FORMAT=JSON","constellation":"kuiper","records":[{"OBJECT_NAME":"KUIPER-00027","OBJECT_ID":"2025-088S","EPOCH":"2026-07-12T06:04:16.892256","CLASSIFICATION_TYPE":"U","MEAN_MOTION":14.79915816,"ECCENTRICITY":0.0001231,"INCLINATION":51.9013,"RA_OF_ASC_NODE":264.7789,"ARG_OF_PERICENTER":119.3921,"MEAN_ANOMALY":240.7165,"EPHEMERIS_TYPE":0,"NORAD_CAT_ID":63740,"ELEMENT_SET_NO":999,"REV_AT_EPOCH":6606,"BSTAR":0.00075629,"MEAN_MOTION_DOT":0.00005547,"MEAN_MOTION_DDOT":0},{"OBJECT_NAME":"KUIPER-00028","OBJECT_ID":"2025-088T","EPOCH":"2026-07-12T11:48:31.084416","CLASSIFICATION_TYPE":"U","MEAN_MOTION":14.79929942,"ECCENTRICITY":0.0000447,"INCLINATION":51.8999,"RA_OF_ASC_NODE":261.1744,"ARG_OF_PERICENTER":100.8667,"MEAN_ANOMALY":259.2345,"EPHEMERIS_TYPE":0,"NORAD_CAT_ID":63741,"ELEMENT_SET_NO":999,"REV_AT_EPOCH":6654,"BSTAR":-0.00012462,"MEAN_MOTION_DOT":-0.00001171,"MEAN_MOTION_DDOT":0},{"OBJECT_NAME":"KUIPER-00029","OBJECT_ID":"2025-088U","EPOCH":"2026-07-09T05:26:19.389984","CLASSIFICATION_TYPE":"U","MEAN_MOTION":14.79914546,"ECCENTRICITY":0.00001843,"INCLINATION":51.9021,"RA_OF_ASC_NODE":274.2983,"ARG_OF_PERICENTER":186.9249,"MEAN_ANOMALY":173.1711,"EPHEMERIS_TYPE":0,"NORAD_CAT_ID":63742,"ELEMENT_SET_NO":999,"REV_AT_EPOCH":6560,"BSTAR":0.00017573667,"MEAN_MOTION_DOT":0.00001118,"MEAN_MOTION_DDOT":0},{"OBJECT_NAME":"KUIPER-00030","OBJECT_ID":"2025-088V","EPOCH":"2026-07-12T10:32:43.221696","CLASSIFICATION_TYPE":"U","MEAN_MOTION":14.79928315,"ECCENTRICITY":0.0000479,"INCLINATION":51.9016,"RA_OF_ASC_NODE":278.9176,"ARG_OF_PERICENTER":81.557,"MEAN_ANOMALY":278.5447,"EPHEMERIS_TYPE":0,"NORAD_CAT_ID":63743,"ELEMENT_SET_NO":999,"REV_AT_EPOCH":6610,"BSTAR":-0.000020564,"MEAN_MOTION_DOT":-0.00000378,"MEAN_MOTION_DDOT":0},{"OBJECT_NAME":"KUIPER-00031","OBJECT_ID":"2025-088W","EPOCH":"2026-07-12T09:42:09.478368","CLASSIFICATION_TYPE":"U","MEAN_MOTION":14.76549599,"ECCENTRICITY":0.0001861,"INCLINATION":51.9003,"RA_OF_ASC_NODE":263.9158,"ARG_OF_PERICENTER":196.6331,"MEAN_ANOMALY":163.4569,"EPHEMERIS_TYPE":0,"NORAD_CAT_ID":63744,"ELEMENT_SET_NO":999,"REV_AT_EPOCH":6602,"BSTAR":0.00023357,"MEAN_MOTION_DOT":0.00001429,"MEAN_MOTION_DDOT":0},{"OBJECT_NAME":"KUIPER-00032","OBJECT_ID":"2025-088X","EPOCH":"2026-07-11T22:37:36.162624","CLASSIFICATION_TYPE":"U","MEAN_MOTION":15.40865608,"ECCENTRICITY":0.00030395,"INCLINATION":51.8664,"RA_OF_ASC_NODE":141.7015,"ARG_OF_PERICENTER":189.432,"MEAN_ANOMALY":170.6611,"EPHEMERIS_TYPE":0,"NORAD_CAT_ID":63745,"ELEMENT_SET_NO":999,"REV_AT_EPOCH":6868,"BSTAR":0.0002527338,"MEAN_MOTION_DOT":0.00010152,"MEAN_MOTION_DDOT":0},{"OBJECT_NAME":"KUIPER-00033","OBJECT_ID":"2025-088Y","EPOCH":"2026-07-12T12:35:17.137824","CLASSIFICATION_TYPE":"U","MEAN_MOTION":14.79940942,"ECCENTRICITY":0.0000369,"INCLINATION":51.9017,"RA_OF_ASC_NODE":293.5636,"ARG_OF_PERICENTER":105.0146,"MEAN_ANOMALY":255.0857,"EPHEMERIS_TYPE":0,"NORAD_CAT_ID":63746,"ELEMENT_SET_NO":999,"REV_AT_EPOCH":6610,"BSTAR":0.00025117,"MEAN_MOTION_DOT":0.00001695,"MEAN_MOTION_DDOT":0},{"OBJECT_NAME":"KUIPER-00034","OBJECT_ID":"2025-088Z","EPOCH":"2026-07-12T10:19:02.534016","CLASSIFICATION_TYPE":"U","MEAN_MOTION":14.79930845,"ECCENTRICITY":0.0000642,"INCLINATION":51.9008,"RA_OF_ASC_NODE":256.514,"ARG_OF_PERICENTER":65.9522,"MEAN_ANOMALY":294.1507,"EPHEMERIS_TYPE":0,"NORAD_CAT_ID":63747,"ELEMENT_SET_NO":999,"REV_AT_EPOCH":6629,"BSTAR":0.00013698,"MEAN_MOTION_DOT":0.00000823,"MEAN_MOTION_DDOT":0},{"OBJECT_NAME":"KUIPER-00035","OBJECT_ID":"2025-088AA","EPOCH":"2026-07-12T12:54:42.463008","CLASSIFICATION_TYPE":"U","MEAN_MOTION":14.7992923,"ECCENTRICITY":0.000037,"INCLINATION":51.901,"RA_OF_ASC_NODE":281.0121,"ARG_OF_PERICENTER":92.5504,"MEAN_ANOMALY":267.55,"EPHEMERIS_TYPE":0,"NORAD_CAT_ID":63748,"ELEMENT_SET_NO":999,"REV_AT_EPOCH":6601,"BSTAR":-0.000012158,"MEAN_MOTION_DOT":-0.00000314,"MEAN_MOTION_DDOT":0},{"OBJECT_NAME":"KUIPER-00037","OBJECT_ID":"2025-088AB","EPOCH":"2026-07-12T12:44:30.894432","CLASSIFICATION_TYPE":"U","MEAN_MOTION":14.79936152,"ECCENTRICITY":0.0000362,"INCLINATION":51.901,"RA_OF_ASC_NODE":279.8993,"ARG_OF_PERICENTER":107.198,"MEAN_ANOMALY":252.9022,"EPHEMERIS_TYPE":0,"NORAD_CAT_ID":63749,"ELEMENT_SET_NO":999,"REV_AT_EPOCH":6681,"BSTAR":0.00010179,"MEAN_MOTION_DOT":0.00000555,"MEAN_MOTION_DDOT":0},{"OBJECT_NAME":"KUIPER-00038","OBJECT_ID":"2025-088AC","EPOCH":"2026-07-12T10:52:09.359040","CLASSIFICATION_TYPE":"U","MEAN_MOTION":14.79933696,"ECCENTRICITY":0.000042,"INCLINATION":51.9017,"RA_OF_ASC_NODE":266.4106,"ARG_OF_PERICENTER":80.7788,"MEAN_ANOMALY":279.3222,"EPHEMERIS_TYPE":0,"NORAD_CAT_ID":63750,"ELEMENT_SET_NO":999,"REV_AT_EPOCH":6599,"BSTAR":0.000086383,"MEAN_MOTION_DOT":0.00000438,"MEAN_MOTION_DDOT":0},{"OBJECT_NAME":"KUIPER-00039","OBJECT_ID":"2025-134A","EPOCH":"2026-07-11T19:37:27.229728","CLASSIFICATION_TYPE":"U","MEAN_MOTION":14.79938859,"ECCENTRICITY":0.00005479,"INCLINATION":51.9013,"RA_OF_ASC_NODE":44.2159,"ARG_OF_PERICENTER":94.968,"MEAN_ANOMALY":265.1345,"EPHEMERIS_TYPE":0,"NORAD_CAT_ID":64500,"ELEMENT_SET_NO":999,"REV_AT_EPOCH":5845,"BSTAR":0.00028412592,"MEAN_MOTION_DOT":0.00001946,"MEAN_MOTION_DDOT":0},{"OBJECT_NAME":"KUIPER-00040","OBJECT_ID":"2025-134B","EPOCH":"2026-07-12T01:02:17.109312","CLASSIFICATION_TYPE":"U","MEAN_MOTION":14.79939417,"ECCENTRICITY":0.00008148,"INCLINATION":51.8993,"RA_OF_ASC_NODE":53.2975,"ARG_OF_PERICENTER":110.2791,"MEAN_ANOMALY":249.8259,"EPHEMERIS_TYPE":0,"NORAD_CAT_ID":64501,"ELEMENT_SET_NO":999,"REV_AT_EPOCH":5834,"BSTAR":0.00027658614,"MEAN_MOTION_DOT":0.00001888,"MEAN_MOTION_DDOT":0},{"OBJECT_NAME":"KUIPER-00041","OBJECT_ID":"2025-134C","EPOCH":"2026-07-12T00:09:45.468000","CLASSIFICATION_TYPE":"U","MEAN_MOTION":14.7993119,"ECCENTRICITY":0.00006527,"INCLINATION":51.9001,"RA_OF_ASC_NODE":55.8435,"ARG_OF_PERICENTER":110.3363,"MEAN_ANOMALY":249.767,"EPHEMERIS_TYPE":0,"NORAD_CAT_ID":64502,"ELEMENT_SET_NO":999,"REV_AT_EPOCH":5830,"BSTAR":0.000093255319,"MEAN_MOTION_DOT":0.0000049,"MEAN_MOTION_DDOT":0},{"OBJECT_NAME":"KUIPER-00042","OBJECT_ID":"2025-134D","EPOCH":"2026-07-11T23:28:53.315904","CLASSIFICATION_TYPE":"U","MEAN_MOTION":14.79941095,"ECCENTRICITY":0.00006762,"INCLINATION":51.899,"RA_OF_ASC_NODE":50.949,"ARG_OF_PERICENTER":97.907,"MEAN_ANOMALY":262.197,"EPHEMERIS_TYPE":0,"NORAD_CAT_ID":64503,"ELEMENT_SET_NO":999,"REV_AT_EPOCH":5837,"BSTAR":0.00027951197,"MEAN_MOTION_DOT":0.00001911,"MEAN_MOTION_DDOT":0},{"OBJECT_NAME":"KUIPER-00043","OBJECT_ID":"2025-134E","EPOCH":"2026-07-11T23:40:32.949408","CLASSIFICATION_TYPE":"U","MEAN_MOTION":14.79932343,"ECCENTRICITY":0.00007889,"INCLINATION":51.9032,"RA_OF_ASC_NODE":43.4101,"ARG_OF_PERICENTER":110.0785,"MEAN_ANOMALY":250.0262,"EPHEMERIS_TYPE":0,"NORAD_CAT_ID":64504,"ELEMENT_SET_NO":999,"REV_AT_EPOCH":5848,"BSTAR":0.00012637507,"MEAN_MOTION_DOT":0.00000742,"MEAN_MOTION_DDOT":0}]}
